CCSDS_OMM_VERS = 2.0
CREATION_DATE  = 
ORIGINATOR     = 

OBJECT_NAME    = STARLINK-35856
OBJECT_ID      = 2025-293L
CENTER_NAME    = EARTH
REF_FRAME      = TEME
TIME_SYSTEM    = UTC
MEAN_ELEMENT_THEORY = SGP/SGP4

EPOCH          = 2025-12-21T12:00:02.000160
MEAN_MOTION    = 15.89755438
ECCENTRICITY   = .0004234
INCLINATION    = 69.9929
RA_OF_ASC_NODE = 298.3347
ARG_OF_PERICENTER = 271.7765
MEAN_ANOMALY   = 274.4006

EPHEMERIS_TYPE = 0
CLASSIFICATION_TYPE = U
NORAD_CAT_ID   = 67013
ELEMENT_SET_NO = 999
REV_AT_EPOCH   = 152
BSTAR          = -.12189E-2
MEAN_MOTION_DOT = -.362827E-2
MEAN_MOTION_DDOT = .45855E-4

CCSDS_OMM_VERS = 2.0
CREATION_DATE  = 
ORIGINATOR     = 

OBJECT_NAME    = STARLINK-36207
OBJECT_ID      = 2025-293M
CENTER_NAME    = EARTH
REF_FRAME      = TEME
TIME_SYSTEM    = UTC
MEAN_ELEMENT_THEORY = SGP/SGP4

EPOCH          = 2025-12-21T12:00:02.000160
MEAN_MOTION    = 15.89812450
ECCENTRICITY   = .0004212
INCLINATION    = 69.9933
RA_OF_ASC_NODE = 298.3321
ARG_OF_PERICENTER = 263.6469
MEAN_ANOMALY   = 285.0915

EPHEMERIS_TYPE = 0
CLASSIFICATION_TYPE = U
NORAD_CAT_ID   = 67014
ELEMENT_SET_NO = 999
REV_AT_EPOCH   = 158
BSTAR          = -.14614E-2
MEAN_MOTION_DOT = -.435914E-2
MEAN_MOTION_DDOT = .63853E-4

CCSDS_OMM_VERS = 2.0
CREATION_DATE  = 
ORIGINATOR     = 

OBJECT_NAME    = STARLINK-36093
OBJECT_ID      = 2025-293N
CENTER_NAME    = EARTH
REF_FRAME      = TEME
TIME_SYSTEM    = UTC
MEAN_ELEMENT_THEORY = SGP/SGP4

EPOCH          = 2025-12-21T12:00:02.000160
MEAN_MOTION    = 15.89909989
ECCENTRICITY   = .0004227
INCLINATION    = 69.9928
RA_OF_ASC_NODE = 298.3257
ARG_OF_PERICENTER = 263.9378
MEAN_ANOMALY   = 289.8588

EPHEMERIS_TYPE = 0
CLASSIFICATION_TYPE = U
NORAD_CAT_ID   = 67015
ELEMENT_SET_NO = 999
REV_AT_EPOCH   = 152
BSTAR          = -.18848E-2
MEAN_MOTION_DOT = -.564338E-2
MEAN_MOTION_DDOT = .10261E-3

CCSDS_OMM_VERS = 2.0
CREATION_DATE  = 
ORIGINATOR     = 

OBJECT_NAME    = STARLINK-36120
OBJECT_ID      = 2025-293P
CENTER_NAME    = EARTH
REF_FRAME      = TEME
TIME_SYSTEM    = UTC
MEAN_ELEMENT_THEORY = SGP/SGP4

EPOCH          = 2025-12-21T12:00:02.000160
MEAN_MOTION    = 15.89853355
ECCENTRICITY   = .0004219
INCLINATION    = 69.9929
RA_OF_ASC_NODE = 298.3291
ARG_OF_PERICENTER = 263.7458
MEAN_ANOMALY   = 287.3662

EPHEMERIS_TYPE = 0
CLASSIFICATION_TYPE = U
NORAD_CAT_ID   = 67016
ELEMENT_SET_NO = 999
REV_AT_EPOCH   = 152
BSTAR          = -.16009E-2
MEAN_MOTION_DOT = -.478321E-2
MEAN_MOTION_DDOT = .75668E-4

CCSDS_OMM_VERS = 2.0
CREATION_DATE  = 
ORIGINATOR     = 

OBJECT_NAME    = STARLINK-35498
OBJECT_ID      = 2025-293Q
CENTER_NAME    = EARTH
REF_FRAME      = TEME
TIME_SYSTEM    = UTC
MEAN_ELEMENT_THEORY = SGP/SGP4

EPOCH          = 2025-12-21T12:00:02.000160
MEAN_MOTION    = 15.89971282
ECCENTRICITY   = .0004331
INCLINATION    = 69.9924
RA_OF_ASC_NODE = 298.3227
ARG_OF_PERICENTER = 269.5454
MEAN_ANOMALY   = 286.7479

EPHEMERIS_TYPE = 0
CLASSIFICATION_TYPE = U
NORAD_CAT_ID   = 67017
ELEMENT_SET_NO = 999
REV_AT_EPOCH   = 171
BSTAR          = -.21508E-2
MEAN_MOTION_DOT = -.645595E-2
MEAN_MOTION_DDOT = .13167E-3

CCSDS_OMM_VERS = 2.0
CREATION_DATE  = 
ORIGINATOR     = 

OBJECT_NAME    = STARLINK-36106
OBJECT_ID      = 2025-293R
CENTER_NAME    = EARTH
REF_FRAME      = TEME
TIME_SYSTEM    = UTC
MEAN_ELEMENT_THEORY = SGP/SGP4

EPOCH          = 2025-12-21T12:00:02.000160
MEAN_MOTION    = 15.90017905
ECCENTRICITY   = .000445
INCLINATION    = 69.9924
RA_OF_ASC_NODE = 298.3193
ARG_OF_PERICENTER = 268.1566
MEAN_ANOMALY   = 290.6644

EPHEMERIS_TYPE = 0
CLASSIFICATION_TYPE = U
NORAD_CAT_ID   = 67018
ELEMENT_SET_NO = 999
REV_AT_EPOCH   = 163
BSTAR          = -.23702E-2
MEAN_MOTION_DOT = -.712817E-2
MEAN_MOTION_DDOT = .15826E-3

CCSDS_OMM_VERS = 2.0
CREATION_DATE  = 
ORIGINATOR     = 

OBJECT_NAME    = STARLINK-35688
OBJECT_ID      = 2025-293S
CENTER_NAME    = EARTH
REF_FRAME      = TEME
TIME_SYSTEM    = UTC
MEAN_ELEMENT_THEORY = SGP/SGP4

EPOCH          = 2025-12-21T12:00:02.000160
MEAN_MOTION    = 15.90058635
ECCENTRICITY   = .0004182
INCLINATION    = 69.9924
RA_OF_ASC_NODE = 298.3165
ARG_OF_PERICENTER = 263.8388
MEAN_ANOMALY   = 297.3448

EPHEMERIS_TYPE = 0
CLASSIFICATION_TYPE = U
NORAD_CAT_ID   = 67019
ELEMENT_SET_NO = 999
REV_AT_EPOCH   = 171
BSTAR          = -.25726E-2
MEAN_MOTION_DOT = -.774842E-2
MEAN_MOTION_DDOT = .18481E-3

CCSDS_OMM_VERS = 2.0
CREATION_DATE  = 
ORIGINATOR     = 

OBJECT_NAME    = STARLINK-36172
OBJECT_ID      = 2025-293T
CENTER_NAME    = EARTH
REF_FRAME      = TEME
TIME_SYSTEM    = UTC
MEAN_ELEMENT_THEORY = SGP/SGP4

EPOCH          = 2025-12-21T12:00:02.000160
MEAN_MOTION    = 15.90137521
ECCENTRICITY   = .0004113
INCLINATION    = 69.9922
RA_OF_ASC_NODE = 298.3131
ARG_OF_PERICENTER = 262.2004
MEAN_ANOMALY   = 301.9566

EPHEMERIS_TYPE = 0
CLASSIFICATION_TYPE = U
NORAD_CAT_ID   = 67020
ELEMENT_SET_NO = 999
REV_AT_EPOCH   = 163
BSTAR          = -.30488E-2
MEAN_MOTION_DOT = -.920913E-2
MEAN_MOTION_DDOT = .25471E-3

CCSDS_OMM_VERS = 2.0
CREATION_DATE  = 
ORIGINATOR     = 

OBJECT_NAME    = STARLINK-36184
OBJECT_ID      = 2025-293U
CENTER_NAME    = EARTH
REF_FRAME      = TEME
TIME_SYSTEM    = UTC
MEAN_ELEMENT_THEORY = SGP/SGP4

EPOCH          = 2025-12-21T12:00:02.000160
MEAN_MOTION    = 15.90178514
ECCENTRICITY   = .0004314
INCLINATION    = 69.9924
RA_OF_ASC_NODE = 298.3096
ARG_OF_PERICENTER = 267.7469
MEAN_ANOMALY   = 299.1279

EPHEMERIS_TYPE = 0
CLASSIFICATION_TYPE = U
NORAD_CAT_ID   = 67021
ELEMENT_SET_NO = 999
REV_AT_EPOCH   = 163
BSTAR          = -.32659E-2
MEAN_MOTION_DOT = -.988101E-2
MEAN_MOTION_DDOT = .29029E-3

CCSDS_OMM_VERS = 2.0
CREATION_DATE  = 
ORIGINATOR     = 

OBJECT_NAME    = STARLINK-36209
OBJECT_ID      = 2025-293V
CENTER_NAME    = EARTH
REF_FRAME      = TEME
TIME_SYSTEM    = UTC
MEAN_ELEMENT_THEORY = SGP/SGP4

EPOCH          = 2025-12-21T12:00:02.000160
MEAN_MOTION    = 15.90248486
ECCENTRICITY   = .0004166
INCLINATION    = 69.9921
RA_OF_ASC_NODE = 298.3060
ARG_OF_PERICENTER = 261.7478
MEAN_ANOMALY   = 308.2994

EPHEMERIS_TYPE = 0
CLASSIFICATION_TYPE = U
NORAD_CAT_ID   = 67022
ELEMENT_SET_NO = 999
REV_AT_EPOCH   = 163
BSTAR          = -.37497E-2
MEAN_MOTION_DOT = -.1137191E-1
MEAN_MOTION_DDOT = .37666E-3

CCSDS_OMM_VERS = 2.0
CREATION_DATE  = 
ORIGINATOR     = 

OBJECT_NAME    = STARLINK-36191
OBJECT_ID      = 2025-293W
CENTER_NAME    = EARTH
REF_FRAME      = TEME
TIME_SYSTEM    = UTC
MEAN_ELEMENT_THEORY = SGP/SGP4

EPOCH          = 2025-12-21T12:00:02.000160
MEAN_MOTION    = 15.90316106
ECCENTRICITY   = .0004121
INCLINATION    = 69.9921
RA_OF_ASC_NODE = 298.3024
ARG_OF_PERICENTER = 262.0254
MEAN_ANOMALY   = 310.6348

EPHEMERIS_TYPE = 0
CLASSIFICATION_TYPE = U
NORAD_CAT_ID   = 67023
ELEMENT_SET_NO = 999
REV_AT_EPOCH   = 152
BSTAR          = -.41694E-2
MEAN_MOTION_DOT = -.1267527E-1
MEAN_MOTION_DDOT = .46051E-3

CCSDS_OMM_VERS = 2.0
CREATION_DATE  = 
ORIGINATOR     = 

OBJECT_NAME    = STARLINK-36192
OBJECT_ID      = 2025-293X
CENTER_NAME    = EARTH
REF_FRAME      = TEME
TIME_SYSTEM    = UTC
MEAN_ELEMENT_THEORY = SGP/SGP4

EPOCH          = 2025-12-21T06:00:00.999648
MEAN_MOTION    = 15.90090650
ECCENTRICITY   = .00042067
INCLINATION    = 69.9928
RA_OF_ASC_NODE = 299.0237
ARG_OF_PERICENTER = 274.1004
MEAN_ANOMALY   = 310.9242

EPHEMERIS_TYPE = 0
CLASSIFICATION_TYPE = U
NORAD_CAT_ID   = 67024
ELEMENT_SET_NO = 999
REV_AT_EPOCH   = 159
BSTAR          = -.65582608E-3
MEAN_MOTION_DOT = -.19919E-2
MEAN_MOTION_DDOT = .16879773E-4

