STARLINK-35856          
1 67013U 25293L   25355.50002315 -.00362827  45855-4 -12189-2 0  9998
2 67013  69.9929 298.3347 0004234 271.7765 274.4006 15.89755438  1523
STARLINK-36207          
1 67014U 25293M   25355.50002315 -.00435914  63853-4 -14614-2 0  9990
2 67014  69.9933 298.3321 0004212 263.6469 285.0915 15.89812450  1589
STARLINK-36093          
1 67015U 25293N   25355.50002315 -.00564338  10261-3 -18848-2 0  9991
2 67015  69.9928 298.3257 0004227 263.9378 289.8588 15.89909989  1526
STARLINK-36120          
1 67016U 25293P   25355.50002315 -.00478321  75668-4 -16009-2 0  9998
2 67016  69.9929 298.3291 0004219 263.7458 287.3662 15.89853355  1525
STARLINK-35498          
1 67017U 25293Q   25355.50002315 -.00645595  13167-3 -21508-2 0  9993
2 67017  69.9924 298.3227 0004331 269.5454 286.7479 15.89971282  1715
STARLINK-36106          
1 67018U 25293R   25355.50002315 -.00712817  15826-3 -23702-2 0  9998
2 67018  69.9924 298.3193 0004450 268.1566 290.6644 15.90017905  1633
STARLINK-35688          
1 67019U 25293S   25355.50002315 -.00774842  18481-3 -25726-2 0  9993
2 67019  69.9924 298.3165 0004182 263.8388 297.3448 15.90058635  1719
STARLINK-36172          
1 67020U 25293T   25355.50002315 -.00920913  25471-3 -30488-2 0  9995
2 67020  69.9922 298.3131 0004113 262.2004 301.9566 15.90137521  1630
STARLINK-36184          
1 67021U 25293U   25355.50002315 -.00988101  29029-3 -32659-2 0  9994
2 67021  69.9924 298.3096 0004314 267.7469 299.1279 15.90178514  1637
STARLINK-36209          
1 67022U 25293V   25355.50002315 -.01137191  37666-3 -37497-2 0  9992
2 67022  69.9921 298.3060 0004166 261.7478 308.2994 15.90248486  1637
STARLINK-36191          
1 67023U 25293W   25355.50002315 -.01267527  46051-3 -41694-2 0  9992
2 67023  69.9921 298.3024 0004121 262.0254 310.6348 15.90316106  1528
STARLINK-36192          
1 67024U 25293X   25355.25001157 -.00199190  16880-4 -65583-3 0  9999
2 67024  69.9928 299.0237 0004206 274.1004 310.9242 15.90090650  1597
